"spkid","full_name","pdes","name","prefix","neo","pha","sats","H","G","M1","M2","K1","K2","PC","diameter","extent","albedo","rot_per","GM","BV","UB","IR","spec_B","spec_T","H_sigma","diameter_sigma","orbit_id","epoch","epoch_mjd","epoch_cal","equinox","e","a","q","i","om","w","ma","ad","n","tp","tp_cal","per","per_y","moid","moid_ld","moid_jup","t_jup","sigma_e","sigma_a","sigma_q","sigma_i","sigma_om","sigma_w","sigma_ma","sigma_ad","sigma_n","sigma_tp","sigma_per","class","producer","data_arc","first_obs","last_obs","n_obs_used","n_del_obs_used","n_dop_obs_used","condition_code","rms","two_body","A1","A1_sigma","A2","A2_sigma","A3","A3_sigma","DT","DT_sigma"
20489486,"489486 (2007 GS3)",489486,,,Y,Y,1,19.40,,,,,,,,,,3.497,,,,,,,,,"JPL 123",2460600.5,60600,2024-10-17.0,J2000,0.1291,1.061,0.924,15.09,215.39,61.07,306.17,1.20,0.9016,2460660.20,2024-12-15.7,399,1.09,0.0201,7.81,3.84,5.77,4.6e-08,1.3e-09,4.8e-08,6.2e-06,7.9e-06,1.8e-05,2.1e-05,1.4e-09,1.6e-09,2.4e-05,7.2e-07,APO,"Otto Matic",5021,2007-04-11,2021-01-08,623,,,0,.43348,,,,,,,,,
20490354,"490354 (2009 FF19)",490354,,,Y,Y,0,21.40,,,,,,,,,,,,,,,,,,,"JPL 42",2460600.5,60600,2024-10-17.0,J2000,0.4092,1.213,0.717,0.56,84.88,244.81,127.29,1.71,0.7379,2460428.01,2024-04-27.5,488,1.34,0.00413,1.61,3.64,5.17,6.2e-08,7.5e-09,7.7e-08,4.1e-06,5.3e-04,5.3e-04,1.1e-04,1.1e-08,6.9e-09,1.6e-04,4.6e-06,APO,"Otto Matic",6114,2005-04-12,2022-01-07,135,,,0,.72798,,,,,,,,,
20494658,"494658 (2000 UG11)",494658,,,Y,Y,1,20.71,,,,,,,,,,4.44,,,,,,,,,"JPL 49",2460600.5,60600,2024-10-17.0,J2000,0.5718,1.929,0.826,8.91,223.91,240.87,322.34,3.03,0.3679,2460702.86,2025-01-27.3,979,2.68,0.00933,3.63,2.23,3.68,2.7e-08,3.4e-09,5.1e-08,6.1e-06,4.5e-06,1.0e-05,1.0e-05,5.4e-09,9.8e-10,2.7e-05,2.6e-06,APO,"Otto Matic",8725,2000-10-21,2024-09-10,442,3,1,0,.41306,,,,,,,,,
20494690,"494690 (2004 JQ1)",494690,,,Y,Y,0,20.10,,,,,,,,,,,,,,,,,,,"JPL 47",2460600.5,60600,2024-10-17.0,J2000,0.4500,1.193,0.656,32.83,77.05,272.66,168.24,1.73,0.756,2460377.96,2024-03-08.4,476,1.3,0.0315,12.3,4,5.08,1.7e-07,2.9e-09,2.1e-07,3.1e-05,2.0e-05,2.5e-05,8.6e-06,4.2e-09,2.8e-09,1.1e-05,1.7e-06,APO,"Otto Matic",6230,2004-05-11,2021-06-01,191,,,0,.64045,,,,,,,,,
20494697,"494697 (2004 SW55)",494697,,,Y,Y,0,20.77,,,,,,,,,,,,,,,,,,,"JPL 47",2460600.5,60600,2024-10-17.0,J2000,0.3340,1.428,0.951,8.79,75.12,352.85,241.22,1.90,0.5778,2460806.07,2025-05-10.5,623,1.71,0.0307,11.9,3.41,4.62,3.8e-08,1.1e-09,5.4e-08,5.6e-06,4.2e-05,4.2e-05,7.6e-06,1.5e-09,6.6e-10,1.3e-05,7.1e-07,APO,"Otto Matic",6362,2004-09-24,2022-02-24,175,,,0,.48016,,,,,,,,,
20494975,"494975 (2009 WO106)",494975,,,Y,Y,0,19.18,,,,,,,,,,8.0364,,,,,,,,,"JPL 39",2460600.5,60600,2024-10-17.0,J2000,0.3853,1.374,0.845,17.35,281.69,134.68,105.64,1.90,0.6119,2460427.85,2024-04-27.3,588,1.61,0.0495,19.3,3.5,4.69,1.1e-07,1.9e-08,1.5e-07,2.2e-05,2.6e-05,3.1e-05,5.2e-05,2.7e-08,1.3e-08,8.2e-05,1.2e-05,APO,"Otto Matic",4833,2009-11-26,2023-02-19,151,,,0,.5631,,,,,,,,,
20495187,"495187 (2012 VO76)",495187,,,Y,Y,0,21.05,,,,,,,,,,,,,,,,,,,"JPL 32",2460600.5,60600,2024-10-17.0,J2000,0.2150,1.204,0.945,36.95,229.47,297.36,272.72,1.46,0.7457,2460717.54,2025-02-11.0,483,1.32,0.0361,14,3.65,5.07,8.2e-08,1.2e-08,9.0e-08,2.7e-05,7.6e-06,2.0e-05,5.5e-05,1.5e-08,1.1e-08,7.6e-05,7.4e-06,APO,"Otto Matic",4399,2009-06-01,2021-06-17,130,,,0,.3888,,,,,,,,,
20496005,"496005 (2007 XJ16)",496005,,,Y,Y,0,19.10,,,,,,,,,,,,,,,,,,,"JPL 86",2460600.5,60600,2024-10-17.0,J2000,0.5563,2.258,1.002,6.23,309.06,32.99,32.92,3.51,0.2904,2460487.17,2024-06-25.6,1.24e+03,3.39,0.0265,10.3,1.93,3.39,2.4e-08,2.7e-08,5.0e-08,3.7e-06,4.7e-05,5.0e-05,1.2e-05,4.2e-08,5.2e-09,3.9e-05,2.2e-05,APO,"Otto Matic",3662,2007-12-05,2017-12-14,474,,,0,.44473,,,,,,,,,
20496013,"496013 (2008 EL6)",496013,,,Y,Y,0,21.00,,,,,,,,,,,,,,,,,,,"JPL 24",2460600.5,60600,2024-10-17.0,J2000,0.4810,1.728,0.897,13.14,177.66,38.41,93.80,2.56,0.4339,2460384.31,2024-03-14.8,830,2.27,0.0198,7.72,2.44,4,4.0e-08,6.6e-09,6.7e-08,1.1e-05,5.2e-05,4.9e-05,1.1e-05,9.7e-09,2.5e-09,2.5e-05,4.7e-06,APO,"Otto Matic",3431,2008-03-05,2017-07-27,82,,,0,.40144,,,,,,,,,
20496816,"496816 (1989 UP)",496816,,,Y,Y,0,20.54,,,,,,,0.3,,,6.98,,,,,,,,,"JPL 77",2460600.5,60600,2024-10-17.0,J2000,0.4722,1.862,0.982,3.85,53.16,17.82,256.52,2.74,0.388,2460867.17,2025-07-10.6,928,2.54,0.00594,2.31,2.59,3.85,1.6e-08,1.6e-09,3.1e-08,2.9e-06,3.0e-05,3.0e-05,3.0e-06,2.3e-09,5.0e-10,7.9e-06,1.2e-06,APO,"Otto Matic",12162,1989-10-27,2023-02-13,368,0,1,0,.36492,,,,,,,,,
20496817,"496817 (1989 VB)",496817,,,Y,Y,0,19.99,,,,,,,0.4,,,14.533,,,,,,,,,"JPL 73",2460600.5,60600,2024-10-17.0,J2000,0.4601,1.862,1.005,2.18,37.85,330.92,278.40,2.72,0.388,2460810.83,2025-05-15.3,928,2.54,0.0168,6.53,2.74,3.86,9.0e-09,3.3e-09,1.7e-08,2.6e-06,4.1e-05,4.2e-05,3.2e-06,4.9e-09,1.0e-09,8.5e-06,2.5e-06,APO,"Otto Matic",12109,1989-11-01,2022-12-27,308,4,2,0,.30543,,,,,,,,,
20496860,"496860 (1999 XL136)",496860,,,Y,Y,0,19.67,,,,,,,,,,,,,,,,,,,"JPL 52",2460600.5,60600,2024-10-17.0,J2000,0.6465,1.819,0.643,8.91,269.97,275.47,28.38,3.00,0.4017,2460529.85,2024-08-07.3,896,2.45,0.00425,1.65,2.08,3.75,3.1e-08,4.4e-09,5.8e-08,1.0e-05,1.7e-05,1.7e-05,3.4e-06,7.3e-09,1.5e-09,8.2e-06,3.3e-06,APO,"Otto Matic",8268,1999-12-12,2022-08-01,304,,,0,.4844,,,,,,,,,
20496901,"496901 (2001 HB)",496901,,,Y,Y,0,20.69,,,,,,,,,,,,,,,,,,,"JPL 35",2460600.5,60600,2024-10-17.0,J2000,0.6940,1.314,0.402,9.28,195.82,238.00,260.14,2.23,0.6544,2460753.09,2025-03-18.5,550,1.51,0.0133,5.18,3.13,4.67,2.0e-07,8.3e-09,2.7e-07,1.9e-05,4.2e-05,3.9e-05,3.4e-05,1.4e-08,6.2e-09,5.3e-05,5.2e-06,APO,"Otto Matic",9200,1998-04-19,2023-06-27,106,,,0,.56776,,,,,,,,,
20497117,"497117 (2004 FU4)",497117,,,Y,Y,0,18.33,,,,,,,,,,,,,,,,,,,"JPL 111",2460600.5,60600,2024-10-17.0,J2000,0.2639,1.26,0.928,23.25,31.56,46.31,296.47,1.59,0.6967,2460691.68,2025-01-16.1,517,1.41,0.00256,0.995,3.81,5,6.5e-08,4.1e-09,8.1e-08,1.6e-05,1.0e-05,2.0e-05,1.5e-05,5.1e-09,3.4e-09,2.2e-05,2.5e-06,APO,"Otto Matic",6653,2004-03-19,2022-06-06,487,,,0,.52322,,,,,,,,,
20499582,"499582 (2010 TH19)",499582,,,Y,Y,0,20.53,,,,,,,0.461,,0.044,,,,,,,,,0.14,"JPL 52",2460600.5,60600,2024-10-17.0,J2000,0.3101,1.464,1.010,6.83,254.20,201.50,277.30,1.92,0.5562,2460749.18,2025-03-14.6,647,1.77,0.0368,14.3,3.28,4.55,6.1e-08,1.1e-08,8.5e-08,5.9e-06,5.1e-05,6.1e-05,5.0e-05,1.4e-08,6.0e-09,9.2e-05,7.0e-06,APO,"Otto Matic",5052,2010-10-07,2024-08-06,261,,,0,.37097,,,,,,,,,
20500080,"500080 (2011 WV134)",500080,,,Y,Y,0,17.22,,,,,,,,,,10.105,,,,,,,,,"JPL 126",2460600.5,60600,2024-10-17.0,J2000,0.6753,2.795,0.907,6.02,157.64,25.90,250.63,4.68,0.2109,2461119.05,2026-03-19.5,1.71e+03,4.67,0.018,7,0.296,2.94,1.4e-08,4.0e-08,4.2e-08,3.6e-06,5.2e-05,5.2e-05,2.2e-05,6.7e-08,4.5e-09,1.1e-04,3.7e-05,APO,"Otto Matic",5757,2006-11-23,2022-08-28,993,,,0,.33548,,,,,,,,,
20503861,"503861 (1998 WZ1)",503861,,,Y,Y,0,19.97,,,,,,,,,,,,,,,,,,,"JPL 49",2460600.5,60600,2024-10-17.0,J2000,0.5566,2.163,0.959,4.31,344.84,137.37,35.72,3.37,0.3098,2460485.18,2024-06-23.6,1.16e+03,3.18,0.023,8.95,1.75,3.47,5.0e-08,5.2e-09,1.1e-07,9.9e-06,1.4e-04,1.4e-04,1.0e-05,8.1e-09,1.1e-09,3.2e-05,4.2e-06,APO,"Otto Matic",7121,1998-11-16,2018-05-16,121,,,0,.46726,,,,,,,,,
20503941,"503941 (2003 UV11)",503941,,,Y,Y,0,19.65,,,,,,,0.260,,0.376,18.25,,,,,,,,0.00,"JPL 83",2460600.5,60600,2024-10-17.0,J2000,0.7626,1.453,0.345,5.93,31.78,124.95,324.10,2.56,0.5625,2460664.33,2024-12-19.8,640,1.75,0.00787,3.06,2.45,4.26,1.5e-08,8.1e-11,2.2e-08,6.0e-06,4.4e-06,5.8e-06,4.1e-07,1.4e-10,4.7e-11,7.2e-07,5.3e-08,APO,"Otto Matic",10209,1996-10-12,2024-09-24,904,8,6,0,.3068,,,,,,,,,
20504034,"504034 (2005 UJ159)",504034,,,Y,Y,0,17.62,,,,,,,,,,,,,,,,,,,"JPL 63",2460600.5,60600,2024-10-17.0,J2000,0.8317,3.343,0.563,35.61,80.25,95.79,26.44,6.12,0.1613,2460436.53,2024-05-06.0,2.23e+03,6.11,0.0389,15.1,2.36,2.28,1.6e-08,6.9e-09,5.3e-08,1.1e-05,2.9e-06,6.4e-06,4.7e-07,1.3e-08,5.0e-10,2.8e-06,6.9e-06,APO,Giorgini,6831,2005-10-30,2024-07-13,307,3,1,0,.34098,,,,,,,,,
20504256,"504256 (2006 VD13)",504256,,,Y,Y,0,19.07,,,,,,,,,,,,,,,,,,,"JPL 87",2460600.5,60600,2024-10-17.0,J2000,0.4837,1.948,1.006,11.71,313.94,162.89,185.93,2.89,0.3625,2461080.70,2026-02-09.2,993,2.72,0.0336,13.1,2.24,3.72,3.7e-08,9.2e-09,7.1e-08,7.6e-06,1.9e-05,2.0e-05,1.9e-05,1.4e-08,2.6e-09,5.5e-05,7.0e-06,APO,"Otto Matic",8094,2000-07-29,2022-09-26,482,,,0,.41864,,,,,,,,,
20504680,"504680 (2009 EO2)",504680,,,Y,Y,0,19.78,,,,,,,,,,,,,,,,,,,"JPL 50",2460600.5,60600,2024-10-17.0,J2000,0.4807,1.712,0.889,11.48,264.63,220.60,2.81,2.53,0.4401,2460594.11,2024-10-10.6,818,2.24,0.0127,4.95,2.62,4.03,5.3e-08,5.4e-09,9.2e-08,1.2e-05,3.0e-05,3.4e-05,1.1e-05,8.0e-09,2.1e-09,2.6e-05,3.9e-06,APO,"Otto Matic",3213,2009-03-05,2017-12-21,179,,,0,.381,,,,,,,,,
20504800,"504800 (2010 CO1)",504800,,,Y,Y,0,21.48,,,,,,,0.380,,0.032,,,,,,,,,0.00,"JPL 33",2460600.5,60600,2024-10-17.0,J2000,0.2179,1.013,0.792,24.02,351.56,252.71,78.84,1.23,0.9671,2460518.98,2024-07-27.4,372,1.02,0.0222,8.63,3.84,5.92,3.2e-07,1.4e-08,3.1e-07,2.7e-05,9.7e-06,1.9e-05,7.5e-05,1.7e-08,2.0e-08,7.6e-05,7.6e-06,APO,"Otto Matic",3592,2010-01-07,2019-11-08,158,,,0,.48123,,,,,,,,,
20505178,"505178 (2012 TV78)",505178,,,Y,Y,0,19.46,,,,,,,,,,,,,,,,,,,"JPL 80",2460600.5,60600,2024-10-17.0,J2000,0.5488,1.816,0.819,7.47,251.75,244.94,268.57,2.81,0.4028,2460827.48,2025-05-31.9,894,2.45,0.014,5.46,2.3,3.84,2.8e-08,9.3e-09,5.1e-08,7.6e-06,2.8e-05,2.9e-05,9.7e-06,1.4e-08,3.1e-09,2.6e-05,6.9e-06,APO,"Otto Matic",7319,2002-10-11,2022-10-25,333,,,0,.4315,,,,,,,,,
20505657,"505657 (2014 SR339)",505657,,,Y,Y,0,18.48,,,,,,,0.971,,0.068,8.71,,,,,,,,0.37,"JPL 198",2460600.5,60600,2024-10-17.0,J2000,0.3038,1.299,0.905,29.79,138.74,299.64,217.16,1.69,0.6654,2460815.18,2025-05-19.6,541,1.48,0.0368,14.3,3.61,4.83,1.3e-08,2.5e-09,1.8e-08,3.8e-06,1.7e-06,5.6e-06,6.7e-06,3.3e-09,1.9e-09,1.1e-05,1.6e-06,APO,"Otto Matic",3543,2014-09-30,2024-06-12,1628,5,1,0,.29201,,,,,,,,,
